start=new Date('2021-12-01T00:00:00.000Z').valueOf();
sats=[{"SEMIMAJOR_AXIS":"6925.356","RA_OF_ASC_NODE":"98.6998","APOAPSIS":"548.192","LAUNCH_DATE":"2021-05-04","MEAN_MOTION_DDOT":"0.0000000000000","TLE_LINE2":"2 48410  53.0544  98.6998 0001402  86.2398 198.2282 15.06397566  3599","CLASSIFICATION_TYPE":"U","OBJECT_ID":"2021-038BK","MEAN_ANOMALY":"198.2282","PERIOD":"95.592","OBJECT_NAME":"STARLINK-2563","EPOCH":"2021-11-30T22:00:00.999936","GP_ID":"190817866","BSTAR":"-0.00091784000000","SITE":"AFETR","INCLINATION":"53.0544","MEAN_ELEMENT_THEORY":"SGP4","PERIAPSIS":"546.250","REV_AT_EPOCH":"359","EPHEMERIS_TYPE":"0","ARG_OF_PERICENTER":"86.2398","TLE_LINE1":"1 48410U 21038BK  21334.91667824 -.00013925  00000-0 -91784-3 0  9991","NORAD_CAT_ID":"48410","ECCENTRICITY":"0.00014020","FILE":"3228256","TIME_SYSTEM":"UTC","DECAY_DATE":null,"COUNTRY_CODE":"US","CENTER_NAME":"EARTH","RCS_SIZE":"LARGE","OBJECT_TYPE":"PAYLOAD","REF_FRAME":"TEME","MEAN_MOTION":"15.06397566","ELEMENT_SET_NO":"999","MEAN_MOTION_DOT":"-0.00013925"},{"ECCENTRICITY":"0.00010680","FILE":"3228256","TIME_SYSTEM":"UTC","CENTER_NAME":"EARTH","DECAY_DATE":null,"COUNTRY_CODE":"US","OBJECT_TYPE":"PAYLOAD","RCS_SIZE":"LARGE","REF_FRAME":"TEME","MEAN_MOTION":"15.06394257","ELEMENT_SET_NO":"999","MEAN_MOTION_DOT":"-0.00011889","TLE_LINE2":"2 48411  53.0549  93.6987 0001068  86.5047 105.4677 15.06394257  3592","MEAN_MOTION_DDOT":"0.0000000000000","SEMIMAJOR_AXIS":"6925.366","RA_OF_ASC_NODE":"93.6987","APOAPSIS":"547.971","LAUNCH_DATE":"2021-05-04","OBJECT_ID":"2021-038BL","CLASSIFICATION_TYPE":"U","OBJECT_NAME":"STARLINK-2505","EPOCH":"2021-11-30T22:00:00.999936","MEAN_ANOMALY":"105.4677","PERIOD":"95.593","INCLINATION":"53.0549","GP_ID":"190816614","BSTAR":"-0.00078070000000","SITE":"AFETR","REV_AT_EPOCH":"359","MEAN_ELEMENT_THEORY":"SGP4","PERIAPSIS":"546.492","TLE_LINE1":"1 48411U 21038BL  21334.91667824 -.00011889  00000-0 -78070-3 0  9992","NORAD_CAT_ID":"48411","ARG_OF_PERICENTER":"86.5047","EPHEMERIS_TYPE":"0"},{"EPHEMERIS_TYPE":"0","ARG_OF_PERICENTER":"86.7290","NORAD_CAT_ID":"48412","TLE_LINE1":"1 48412U 21038BM  21334.91667824 -.00019769  00000-0 -13117-2 0  9998","PERIAPSIS":"546.673","MEAN_ELEMENT_THEORY":"SGP4","REV_AT_EPOCH":"360","SITE":"AFETR","GP_ID":"190816864","BSTAR":"-0.00131170000000","INCLINATION":"53.0541","PERIOD":"95.592","MEAN_ANOMALY":"230.3019","EPOCH":"2021-11-30T22:00:00.999936","OBJECT_NAME":"STARLINK-2581","CLASSIFICATION_TYPE":"U","OBJECT_ID":"2021-038BM","LAUNCH_DATE":"2021-05-04","APOAPSIS":"547.702","RA_OF_ASC_NODE":"93.6998","SEMIMAJOR_AXIS":"6925.322","MEAN_MOTION_DDOT":"0.0000000000000","TLE_LINE2":"2 48412  53.0541  93.6998 0000743  86.7290 230.3019 15.06408532  3600","MEAN_MOTION_DOT":"-0.00019769","ELEMENT_SET_NO":"999","MEAN_MOTION":"15.06408532","OBJECT_TYPE":"PAYLOAD","RCS_SIZE":"LARGE","REF_FRAME":"TEME","COUNTRY_CODE":"US","DECAY_DATE":null,"CENTER_NAME":"EARTH","TIME_SYSTEM":"UTC","FILE":"3228256","ECCENTRICITY":"0.00007430"},{"ELEMENT_SET_NO":"999","MEAN_MOTION_DOT":"-0.00000192","MEAN_MOTION":"15.06393071","TIME_SYSTEM":"UTC","FILE":"3228256","RCS_SIZE":"LARGE","OBJECT_TYPE":"PAYLOAD","REF_FRAME":"TEME","CENTER_NAME":"EARTH","DECAY_DATE":null,"COUNTRY_CODE":"US","ECCENTRICITY":"0.00013070","REV_AT_EPOCH":"3144","PERIAPSIS":"546.330","MEAN_ELEMENT_THEORY":"SGP4","NORAD_CAT_ID":"48428","TLE_LINE1":"1 48428U 21040A   21334.77489351 -.00000192  00000-0  60104-5 0  9999","EPHEMERIS_TYPE":"0","ARG_OF_PERICENTER":"68.4101","EPOCH":"2021-11-30T18:35:50.799264","OBJECT_NAME":"STARLINK-2461","PERIOD":"95.593","MEAN_ANOMALY":"291.7027","INCLINATION":"53.0557","GP_ID":"190816867","BSTAR":"0.00000601040000","SITE":"AFETR","OBJECT_ID":"2021-040A","CLASSIFICATION_TYPE":"U","MEAN_MOTION_DDOT":"0.0000000000000","TLE_LINE2":"2 48428  53.0557 349.3402 0001307  68.4101 291.7027 15.06393071 31444","APOAPSIS":"548.140","LAUNCH_DATE":"2021-05-09","SEMIMAJOR_AXIS":"6925.370","RA_OF_ASC_NODE":"349.3402"},{"CLASSIFICATION_TYPE":"U","OBJECT_ID":"2021-040B","RA_OF_ASC_NODE":"318.7030","SEMIMAJOR_AXIS":"6925.444","APOAPSIS":"548.552","LAUNCH_DATE":"2021-05-09","MEAN_MOTION_DDOT":"0.0000000000000","TLE_LINE2":"2 48429  53.0546 318.7030 0001795  60.0743 159.5329 15.06368887  3599","MEAN_ELEMENT_THEORY":"SGP4","PERIAPSIS":"546.066","REV_AT_EPOCH":"359","ARG_OF_PERICENTER":"60.0743","EPHEMERIS_TYPE":"0","TLE_LINE1":"1 48429U 21040B   21334.91667824  .00030478  00000-0  20579-2 0  9997","NORAD_CAT_ID":"48429","MEAN_ANOMALY":"159.5329","PERIOD":"95.594","OBJECT_NAME":"STARLINK-2749","EPOCH":"2021-11-30T22:00:00.999936","GP_ID":"190817617","BSTAR":"0.00205790000000","SITE":"AFETR","INCLINATION":"53.0546","FILE":"3228256","TIME_SYSTEM":"UTC","CENTER_NAME":"EARTH","DECAY_DATE":null,"COUNTRY_CODE":"US","RCS_SIZE":"LARGE","OBJECT_TYPE":"PAYLOAD","REF_FRAME":"TEME","ECCENTRICITY":"0.00017950","ELEMENT_SET_NO":"999","MEAN_MOTION_DOT":"0.00030478","MEAN_MOTION":"15.06368887"},{"ELEMENT_SET_NO":"999","MEAN_MOTION_DOT":"0.00037947","MEAN_MOTION":"15.06377430","TIME_SYSTEM":"UTC","FILE":"3228256","OBJECT_TYPE":"PAYLOAD","RCS_SIZE":"LARGE","REF_FRAME":"TEME","DECAY_DATE":null,"COUNTRY_CODE":"US","CENTER_NAME":"EARTH","ECCENTRICITY":"0.00018930","REV_AT_EPOCH":"360","PERIAPSIS":"545.972","MEAN_ELEMENT_THEORY":"SGP4","NORAD_CAT_ID":"48430","TLE_LINE1":"1 48430U 21040C   21334.91667824  .00037947  00000-0  25543-2 0  9993","ARG_OF_PERICENTER":"58.7979","EPHEMERIS_TYPE":"0","EPOCH":"2021-11-30T22:00:00.999936","OBJECT_NAME":"STARLINK-2729","PERIOD":"95.594","MEAN_ANOMALY":"340.7820","INCLINATION":"53.0558","GP_ID":"190818623","SITE":"AFETR","BSTAR":"0.00255430000000","OBJECT_ID":"2021-040C","CLASSIFICATION_TYPE":"U","TLE_LINE2":"2 48430  53.0558 318.7043 0001893  58.7979 340.7820 15.06377430  3608","MEAN_MOTION_DDOT":"0.0000000000000","LAUNCH_DATE":"2021-05-09","APOAPSIS":"548.594","RA_OF_ASC_NODE":"318.7043","SEMIMAJOR_AXIS":"6925.418"},{"ECCENTRICITY":"0.00019940","TIME_SYSTEM":"UTC","FILE":"3228256","REF_FRAME":"TEME","RCS_SIZE":"LARGE","OBJECT_TYPE":"PAYLOAD","DECAY_DATE":null,"CENTER_NAME":"EARTH","COUNTRY_CODE":"US","MEAN_MOTION":"15.06394325","ELEMENT_SET_NO":"999","MEAN_MOTION_DOT":"0.00006223","LAUNCH_DATE":"2021-05-09","APOAPSIS":"548.612","RA_OF_ASC_NODE":"313.7002","SEMIMAJOR_AXIS":"6925.366","TLE_LINE2":"2 48431  53.0542 313.7002 0001994  50.4542 276.6430 15.06394325  3593","MEAN_MOTION_DDOT":"0.0000000000000","CLASSIFICATION_TYPE":"U","OBJECT_ID":"2021-040D","PERIOD":"95.593","MEAN_ANOMALY":"276.6430","EPOCH":"2021-11-30T22:00:00.999936","OBJECT_NAME":"STARLINK-2700","GP_ID":"190817870","SITE":"AFETR","BSTAR":"0.00043639000000","INCLINATION":"53.0542","PERIAPSIS":"545.850","MEAN_ELEMENT_THEORY":"SGP4","REV_AT_EPOCH":"359","EPHEMERIS_TYPE":"0","ARG_OF_PERICENTER":"50.4542","NORAD_CAT_ID":"48431","TLE_LINE1":"1 48431U 21040D   21334.91667824  .00006223  00000-0  43639-3 0  9994"},{"REV_AT_EPOCH":"359","PERIAPSIS":"545.832","MEAN_ELEMENT_THEORY":"SGP4","NORAD_CAT_ID":"48432","TLE_LINE1":"1 48432U 21040E   21334.91667824  .00027500  00000-0  18588-2 0  9990","EPHEMERIS_TYPE":"0","ARG_OF_PERICENTER":"56.2414","EPOCH":"2021-11-30T22:00:00.999936","OBJECT_NAME":"STARLINK-2680","PERIOD":"95.593","MEAN_ANOMALY":"218.3555","INCLINATION":"53.0547","GP_ID":"190818021","BSTAR":"0.00185880000000","SITE":"AFETR","OBJECT_ID":"2021-040E","CLASSIFICATION_TYPE":"U","TLE_LINE2":"2 48432  53.0547 308.7033 0002079  56.2414 218.3555 15.06381099  3599","MEAN_MOTION_DDOT":"0.0000000000000","APOAPSIS":"548.711","LAUNCH_DATE":"2021-05-09","RA_OF_ASC_NODE":"308.7033","SEMIMAJOR_AXIS":"6925.406","ELEMENT_SET_NO":"999","MEAN_MOTION_DOT":"0.00027500","MEAN_MOTION":"15.06381099","TIME_SYSTEM":"UTC","FILE":"3228256","RCS_SIZE":"LARGE","OBJECT_TYPE":"PAYLOAD","REF_FRAME":"TEME","DECAY_DATE":null,"COUNTRY_CODE":"US","CENTER_NAME":"EARTH","ECCENTRICITY":"0.00020790"},{"MEAN_MOTION_DOT":"-0.00018104","ELEMENT_SET_NO":"999","MEAN_MOTION":"15.06401005","DECAY_DATE":null,"COUNTRY_CODE":"US","CENTER_NAME":"EARTH","OBJECT_TYPE":"PAYLOAD","RCS_SIZE":"LARGE","REF_FRAME":"TEME","FILE":"3228256","TIME_SYSTEM":"UTC","ECCENTRICITY":"0.00021540","TLE_LINE1":"1 48433U 21040F   21334.91667824 -.00018104  00000-0 -11995-2 0  9998","NORAD_CAT_ID":"48433","ARG_OF_PERICENTER":"49.4184","EPHEMERIS_TYPE":"0","REV_AT_EPOCH":"359","MEAN_ELEMENT_THEORY":"SGP4","PERIAPSIS":"545.719","INCLINATION":"53.0528","SITE":"AFETR","GP_ID":"190818472","BSTAR":"-0.00119950000000","OBJECT_NAME":"STARLINK-2699","EPOCH":"2021-11-30T22:00:00.999936","MEAN_ANOMALY":"97.6829","PERIOD":"95.592","OBJECT_ID":"2021-040F","CLASSIFICATION_TYPE":"U","MEAN_MOTION_DDOT":"0.0000000000000","TLE_LINE2":"2 48433  53.0528 313.7025 0002154  49.4184  97.6829 15.06401005  3590","RA_OF_ASC_NODE":"313.7025","SEMIMAJOR_AXIS":"6925.345","LAUNCH_DATE":"2021-05-09","APOAPSIS":"548.702"},{"ARG_OF_PERICENTER":"49.9868","EPHEMERIS_TYPE":"0","TLE_LINE1":"1 48434U 21040G   21334.91667824  .00035034  00000-0  23603-2 0  9997","NORAD_CAT_ID":"48434","MEAN_ELEMENT_THEORY":"SGP4","PERIAPSIS":"545.763","REV_AT_EPOCH":"359","BSTAR":"0.00236030000000","GP_ID":"190818923","SITE":"AFETR","INCLINATION":"53.0594","MEAN_ANOMALY":"49.5974","PERIOD":"95.593","OBJECT_NAME":"STARLINK-2692","EPOCH":"2021-11-30T22:00:00.999936","CLASSIFICATION_TYPE":"U","OBJECT_ID":"2021-040G","SEMIMAJOR_AXIS":"6925.402","RA_OF_ASC_NODE":"318.6903","APOAPSIS":"548.770","LAUNCH_DATE":"2021-05-09","MEAN_MOTION_DDOT":"0.0000000000000","TLE_LINE2":"2 48434  53.0594 318.6903 0002171  49.9868  49.5974 15.06382672  3591","MEAN_MOTION_DOT":"0.00035034","ELEMENT_SET_NO":"999","MEAN_MOTION":"15.06382672","CENTER_NAME":"EARTH","DECAY_DATE":null,"COUNTRY_CODE":"US","REF_FRAME":"TEME","RCS_SIZE":"LARGE","OBJECT_TYPE":"PAYLOAD","FILE":"3228256","TIME_SYSTEM":"UTC","ECCENTRICITY":"0.00021710"}];
